{
    "links": {
        "self": "http://www.neowsapp.com/rest/v1/neo/3484922?api_key=iIulBulltgU6a56xZRHN4H3l9WmuAYTsLGpBGhQ2"
    },
    "id": "3484922",
    "neo_reference_id": "3484922",
    "name": "(2010 AB3)",
    "designation": "2010 AB3",
    "nasa_jpl_url": "http://ssd.jpl.nasa.gov/sbdb.cgi?sstr=3484922",
    "absolute_magnitude_h": 23.3,
    "estimated_diameter": {
        "kilometers": {
            "estimated_diameter_min": 0.058150704,
            "estimated_diameter_max": 0.130028927
        },
        "meters": {
            "estimated_diameter_min": 58.1507039646,
            "estimated_diameter_max": 130.0289270043
        },
        "miles": {
            "estimated_diameter_min": 0.0361331611,
            "estimated_diameter_max": 0.0807962044
        },
        "feet": {
            "estimated_diameter_min": 190.7831555951,
            "estimated_diameter_max": 426.6041048727
        }
    },
    "is_potentially_hazardous_asteroid": false,
    "close_approach_data": [
        {
            "close_approach_date": "2009-12-30",
            "close_approach_date_full": "2009-Dec-30 18:15",
            "epoch_date_close_approach": 1262196900000,
            "relative_velocity": {
                "kilometers_per_second": "8.7859615507",
                "kilometers_per_hour": "31629.4615825762",
                "miles_per_hour": "19653.3173927957"
            },
            "miss_distance": {
                "astronomical": "0.109467295",
                "lunar": "42.582777755",
                "kilometers": "16376074.16666165",
                "miles": "10175620.63736477"
            },
            "orbiting_body": "Earth"
        }
    ],
    "orbital_data": {
        "orbit_id": "10",
        "orbit_determination_date": "2017-04-06 08:58:40",
        "first_observation_date": "2010-01-08",
        "last_observation_date": "2010-02-08",
        "data_arc_in_days": 31,
        "observations_used": 44,
        "orbit_uncertainty": "8",
        "minimum_orbit_intersection": ".0660438",
        "jupiter_tisserand_invariant": "3.065",
        "epoch_osculation": "2455207.5",
        "eccentricity": ".6125640240621436",
        "semi_major_axis": "2.700348893477909",
        "inclination": "2.250525151197789",
        "ascending_node_longitude": "296.366458646975",
        "orbital_period": "1620.795591834128",
        "perihelion_distance": "1.046212308917324",
        "perihelion_argument": "143.1084090251083",
        "aphelion_distance": "4.354485478038494",
        "perihelion_time": "2455183.078519993672",
        "mean_anomaly": "5.424331634767812",
        "mean_motion": ".2221131411102963",
        "equinox": "J2000",
        "orbit_class": {
            "orbit_class_type": "AMO",
            "orbit_class_description": "Near-Earth asteroid orbits similar to that of 1221 Amor",
            "orbit_class_range": "1.017 AU < q (perihelion) < 1.3 AU"
        }
    },
    "is_sentry_object": false
}